NORAD_CAT_ID,OBJECT_NAME,OBJECT_TYPE,EPOCH,MEAN_MOTION,ECCENTRICITY,INCLINATION,RA_OF_ASC_NODE,ARG_OF_PERICENTER,MEAN_ANOMALY,BSTAR,MEAN_MOTION_DOT,MEAN_MOTION_DDOT,TLE_LINE0,TLE_LINE1,TLE_LINE2,SEMIMAJOR_AXIS,PERIOD,APOGEE,PERIGEE,DECAYED
53172.0,STARLINK-4299,PAYLOAD,2022-12-11 17:51:45,15.08850422,0.0002048,53.2184,74.0536,33.6134,326.4988,0.00050405,7.745e-05,0.0,0 STARLINK-4299,1 53172U 22083AS  22345.74427311  .00007745  00000-0  50405-3 0  9998,2 53172  53.2184  74.0536 0002048  33.6134 326.4988 15.08850422 22685,6917.849,95.437,541.13,538.297,0.0
53172.0,STARLINK-4299,PAYLOAD,2022-12-12 09:45:36,15.08851562,0.0001969,53.2188,71.0794,37.9492,322.1639,0.00027296,4.06e-05,0.0,0 STARLINK-4299,1 53172U 22083AS  22346.40666885  .00004060  00000-0  27296-3 0  9992,2 53172  53.2188  71.0794 0001969  37.9492 322.1639 15.08851562 23422,6917.845,95.437,541.072,538.3480000000002,0.0
53172.0,STARLINK-4299,PAYLOAD,2022-12-12 11:20:59,15.08850142,0.0001965,53.2189,70.7818,37.7409,322.3721,0.00020498,2.977e-05,0.0,0 STARLINK-4299,1 53172U 22083AS  22346.47290901  .00002977  00000-0  20498-3 0  9993,2 53172  53.2189  70.7818 0001965  37.7409 322.3721 15.08850142 22794,6917.849,95.437,541.0740000000002,538.355,0.0
53172.0,STARLINK-4299,PAYLOAD,2022-12-12 16:07:08,15.08845578,0.0001978,53.2189,69.8903,39.7917,320.322,0.00012724,1.738e-05,0.0,0 STARLINK-4299,1 53172U 22083AS  22346.67163013  .00001738  00000-0  12724-3 0  9995,2 53172  53.2189  69.8903 0001978  39.7917 320.3220 15.08845578 22821,6917.863,95.437,541.097,538.36,0.0
53172.0,STARLINK-4299,PAYLOAD,2022-12-12 22:28:41,15.08840757,0.0002253,53.2185,68.70100000000001,38.0377,322.0774,-4.0217e-05,-9.28e-06,0.0,0 STARLINK-4299,1 53172U 22083AS  22346.93658889 -.00000928  00000-0 -40217-4 0  9995,2 53172  53.2185  68.7010 0002253  38.0377 322.0774 15.08840757 23506,6917.878000000002,95.438,541.302,538.184,0.0
53172.0,STARLINK-4299,PAYLOAD,2022-12-13 09:36:23,15.08842711,0.0002095,53.2183,66.6193,37.0952,323.0185,1.1974e-05,-9.8e-07,0.0,0 STARLINK-4299,1 53172U 22083AS  22347.40026966 -.00000098  00000-0  11974-4 0  9998,2 53172  53.2183  66.6193 0002095  37.0952 323.0185 15.08842711 22930,6917.871999999999,95.437,541.186,538.288,0.0
53172.0,STARLINK-4299,PAYLOAD,2022-12-13 15:57:55,15.0884328,0.0002143,53.2185,65.4299,36.8376,323.2764,8.3849e-06,-1.55e-06,0.0,0 STARLINK-4299,1 53172U 22083AS  22347.66522937 -.00000155  00000-0  83849-5 0  9990,2 53172  53.2185  65.4299 0002143  36.8376 323.2764 15.08843280 22978,6917.87,95.437,541.2180000000002,538.253,0.0
53172.0,STARLINK-4299,PAYLOAD,2022-12-14 07:51:47,15.08837884,0.0001915,53.22,62.4559,30.6088,329.5016,-4.0324e-05,-9.3e-06,0.0,0 STARLINK-4299,1 53172U 22083AS  22348.32763382 -.00000930  00000-0 -40324-4 0  9997,2 53172  53.2200  62.4559 0001915  30.6088 329.5016 15.08837884 23715,6917.887,95.438,541.077,538.427,0.0
53172.0,STARLINK-4299,PAYLOAD,2022-12-14 11:02:33,15.08839907,0.0001768,53.2189,61.8596,45.4729,314.6408,-3.2564e-05,-8.06e-06,0.0,0 STARLINK-4299,1 53172U 22083AS  22348.46011238 -.00000806  00000-0 -32564-4 0  9997,2 53172  53.2189  61.8596 0001768  45.4729 314.6408 15.08839907 23096,6917.880999999999,95.438,540.969,538.523,0.0
53172.0,STARLINK-4299,PAYLOAD,2022-12-14 14:13:19,15.08851381,0.0001795,53.2187,61.2655,39.9829,320.1295,-0.00036875,-6.154e-05,0.0,0 STARLINK-4299,1 53172U 22083AS  22348.59258569 -.00006154  00000-0 -36875-3 0  9991,2 53172  53.2187  61.2655 0001795  39.9829 320.1295 15.08851381 23752,6917.846,95.437,540.952,538.469,0.0
53172.0,STARLINK-4299,PAYLOAD,2022-12-15 04:31:48,15.08839576,0.0001963,53.218,58.59,35.6139,324.4984,0.00013852,1.917e-05,0.0,0 STARLINK-4299,1 53172U 22083AS  22349.18875494  .00001917  00000-0  13852-3 0  9999,2 53172  53.2180  58.5900 0001963  35.6139 324.4984 15.08839576 23845,6917.882,95.438,541.105,538.389,0.0
53172.0,STARLINK-4299,PAYLOAD,2022-12-15 12:28:43,15.08847218,0.0002154,53.2181,57.1039,34.2853,325.8277,0.00025467,3.768e-05,0.0,0 STARLINK-4299,1 53172U 22083AS  22349.51995263  .00003768  00000-0  25467-3 0  9994,2 53172  53.2181  57.1039 0002154  34.2853 325.8277 15.08847218 23252,6917.858,95.437,541.2130000000002,538.2330000000002,0.0
53172.0,STARLINK-4299,PAYLOAD,2022-12-15 15:39:29,15.08852447,0.0002164,53.2182,56.5091,33.9893,326.1238,0.00035247,5.328e-05,0.0,0 STARLINK-4299,1 53172U 22083AS  22349.65243053  .00005328  00000-0  35247-3 0  9993,2 53172  53.2182  56.5091 0002164  33.9893 326.1238 15.08852447 23278,6917.842,95.437,541.2040000000002,538.21,0.0
53172.0,STARLINK-4299,PAYLOAD,2022-12-16 04:22:34,15.08856261,0.0002179,53.2182,54.13,36.8322,323.2819,0.00035218,5.324e-05,0.0,0 STARLINK-4299,1 53172U 22083AS  22350.18234667  .00005324  00000-0  35218-3 0  9998,2 53172  53.2182  54.1300 0002179  36.8322 323.2819 15.08856261 23990,6917.831,95.437,541.203,538.188,0.0
53172.0,STARLINK-4299,PAYLOAD,2022-12-16 13:54:53,15.08849665,0.0002209,53.2184,52.3458,34.8025,325.3111,0.00015883,2.241e-05,0.0,0 STARLINK-4299,1 53172U 22083AS  22350.57978691  .00002241  00000-0  15883-3 0  9994,2 53172  53.2184  52.3458 0002209  34.8025 325.3111 15.08849665 23413,6917.851,95.437,541.244,538.188,0.0
53172.0,STARLINK-4299,PAYLOAD,2022-12-16 15:30:16,15.08846817,0.0002215,53.2181,52.0489,29.5373,330.5744,0.00014135,1.962e-05,0.0,0 STARLINK-4299,1 53172U 22083AS  22350.64602768  .00001962  00000-0  14135-3 0  9999,2 53172  53.2181  52.0489 0002215  29.5373 330.5744 15.08846817 24063,6917.86,95.437,541.257,538.192,0.0
53172.0,STARLINK-4299,PAYLOAD,2022-12-16 21:51:49,15.08839359,0.0002174,53.2182,50.8593,31.0275,329.0845,-4.4049e-05,-9.89e-06,0.0,0 STARLINK-4299,1 53172U 22083AS  22350.91098975 -.00000989  00000-0 -44049-4 0  9996,2 53172  53.2182  50.8593 0002174  31.0275 329.0845 15.08839359 24102,6917.882,95.438,541.251,538.243,0.0
53172.0,STARLINK-4299,PAYLOAD,2022-12-17 13:45:41,15.08842037,0.0002262,53.2189,47.8862,34.308,325.8058,3.3253e-05,2.41e-06,0.0,0 STARLINK-4299,1 53172U 22083AS  22351.57339137  .00000241  00000-0  33253-4 0  9991,2 53172  53.2189  47.8862 0002262  34.3080 325.8058 15.08842037 23568,6917.874,95.437,541.304,538.174,0.0
53172.0,STARLINK-4299,PAYLOAD,2022-12-17 15:21:03,15.08846575,0.000227,53.2191,47.5888,35.7497,324.3647,9.0524e-05,1.153e-05,0.0,0 STARLINK-4299,1 53172U 22083AS  22351.63962901  .00001153  00000-0  90524-4 0  9996,2 53172  53.2191  47.5888 0002270  35.7497 324.3647 15.08846575 23572,6917.86,95.437,541.2959999999998,538.155,0.0
53172.0,STARLINK-4299,PAYLOAD,2022-12-18 04:04:09,15.08838052,0.0002123,53.2183,45.209,30.8874,329.2242,-8.8068e-05,-1.6899999999999994e-05,0.0,0 STARLINK-4299,1 53172U 22083AS  22352.16954896 -.00001690  00000-0 -88068-4 0  9997,2 53172  53.2183  45.2090 0002123  30.8874 329.2242 15.08838052 24291,6917.886,95.438,541.22,538.283,0.0
53172.0,STARLINK-4299,PAYLOAD,2022-12-18 10:25:42,15.08834711,0.0002212,53.2193,44.0206,30.3698,329.7422,-3.9638e-05,-9.19e-06,0.0,0 STARLINK-4299,1 53172U 22083AS  22352.43451487 -.00000919  00000-0 -39638-4 0  9997,2 53172  53.2193  44.0206 0002212  30.3698 329.7422 15.08834711 23692,6917.897,95.438,541.2919999999998,538.231,0.0
53172.0,STARLINK-4299,PAYLOAD,2022-12-19 02:19:34,15.08820559,0.0002289,53.2193,41.0476,30.4187,329.6938,-5.6962e-05,-1.194e-05,0.0,0 STARLINK-4299,1 53172U 22083AS  22353.09692960 -.00001194  00000-0 -56962-4 0  9998,2 53172  53.2193  41.0476 0002289  30.4187 329.6938 15.08820559 24435,6917.94,95.439,541.388,538.221,0.0
53172.0,STARLINK-4299,PAYLOAD,2022-12-19 08:41:07,15.08819857,0.0002254,53.2195,39.8581,31.8929,328.2199,2.4457e-05,1.01e-06,0.0,0 STARLINK-4299,1 53172U 22083AS  22353.36189142  .00000101  00000-0  24457-4 0  9990,2 53172  53.2195  39.8581 0002254  31.8929 328.2199 15.08819857 23836,6917.941999999999,95.439,541.366,538.248,0.0
53172.0,STARLINK-4299,PAYLOAD,2022-12-19 19:48:48,15.08838673,0.0002307,53.2194,37.7764,32.2504,327.8629,7.7097e-05,9.39e-06,0.0,0 STARLINK-4299,1 53172U 22083AS  22353.82556098  .00000939  00000-0  77097-4 0  9996,2 53172  53.2194  37.7764 0002307  32.2504 327.8629 15.08838673 24547,6917.884,95.438,541.345,538.153,0.0
53172.0,STARLINK-4299,PAYLOAD,2022-12-20 02:10:20,15.088505800000002,0.0002183,53.2192,36.5864,31.2524,328.8597,7.289300000000001e-05,8.72e-06,0.0,0 STARLINK-4299,1 53172U 22083AS  22354.09051252  .00000872  00000-0  72893-4 0  9993,2 53172  53.2192  36.5864 0002183  31.2524 328.8597 15.08850580 24586,6917.848000000001,95.437,541.2230000000002,538.203,0.0
53172.0,STARLINK-4299,PAYLOAD,2022-12-20 11:42:39,15.08854092,0.0002323,53.2191,34.8049,29.885,330.2275,0.00040022,6.09e-05,0.0,0 STARLINK-4299,1 53172U 22083AS  22354.48795390  .00006090  00000-0  40022-3 0  9990,2 53172  53.2191  34.8049 0002323  29.8850 330.2275 15.08854092 24001,6917.837,95.437,541.309,538.095,0.0
53172.0,STARLINK-4299,PAYLOAD,2022-12-21 11:33:27,15.08833416,0.000156,53.2189,30.3424,12.5109,347.5922,-6.4195e-05,-1.309e-05,0.0,0 STARLINK-4299,1 53172U 22083AS  22355.48156280 -.00001309  00000-0 -64195-4 0  9998,2 53172  53.2189  30.3424 0001560  12.5109 347.5922 15.08833416 24797,6917.901,95.438,540.845,538.686,0.0
53172.0,STARLINK-4299,PAYLOAD,2022-12-22 09:48:51,15.08835273,0.0002374,53.2183,26.1815,30.2594,329.8535,0.00061885,9.573e-05,0.0,0 STARLINK-4299,1 53172U 22083AS  22356.40893246  .00009573  00000-0  61885-3 0  9992,2 53172  53.2183  26.1815 0002374  30.2594 329.8535 15.08835273 24298,6917.895,95.438,541.4019999999998,538.118,0.0
53172.0,STARLINK-4299,PAYLOAD,2022-12-23 03:18:06,15.08846707,0.0002297,53.2177,22.9085,32.5814,327.532,0.0004471,6.836e-05,0.0,0 STARLINK-4299,1 53172U 22083AS  22357.13757100  .00006836  00000-0  44710-3 0  9998,2 53172  53.2177  22.9085 0002297  32.5814 327.5320 15.08846707 25043,6917.86,95.437,541.314,538.136,0.0
